COSMOS 2407             
1 28380U 04028A   26131.37449712  .00000061  00000+0  46870-4 0  9990
2 28380  82.9580 102.0982 0039221 357.5775 167.2292 13.76331476 94815
COSMOS 2414             
1 28521U 05002A   26131.33786612  .00000068  00000+0  43340-4 0  9995
2 28521  82.9496  71.5168 0041579  74.8985 285.6773 13.87922642 78707
INMARSAT 4-F1           
1 28628U 05009A   26131.53447752  .00000045  00000+0  00000+0 0  9997
2 28628   5.1189  42.6766 0002866  10.8167 186.3784  1.00272454 77307
SJ-7                    
1 28737U 05024A   26131.51822925  .00004492  00000+0  20535-3 0  9991
2 28737  97.7317 160.6479 0016818 154.5778 205.6287 15.20976590142457
CUBESAT XI-V            
1 28895U 05043F   26131.37052593  .00000850  00000+0  14206-3 0  9999
2 28895  98.2945 286.2304 0013241 326.6866  33.3506 14.72532793 96338
HINODE (SOLAR-B)        
1 29479U 06041A   26131.46162684  .00000435  00000+0  83113-4 0  9993
2 29479  98.0565 148.1546 0018533  48.2408 312.0377 14.68568868 49489
SHIJIAN-6 02B (SJ-6 02B)
1 29506U 06046B   26131.55579834  .00001494  00000+0  12082-3 0  9990
2 29506  97.7158 160.8422 0011436 179.8288 180.2942 15.01271142 65249
DMSP 5D-3 F17 (USA 191) 
1 29522U 06050A   26131.47041213  .00000049  00000+0  47867-4 0  9994
2 29522  98.7388 138.7911 0010533 154.5824 205.5870 14.14986627  7233
LAPAN-TUBSAT            
1 29709U 07001A   26131.48730910  .00001030  00000+0  12458-3 0  9996
2 29709  98.1348 129.8864 0011055 310.4228  49.6021 14.85915176 45707
HAIYANG-1B              
1 31113U 07010A   26131.43661384  .00000056  00000+0  36997-4 0  9993
2 31113  98.3483 114.7107 0012613 314.6022  45.4132 14.31017687995378
COSMO-SKYMED 2          
1 32376U 07059A   26131.50283455  .00000259  00000+0  39071-4 0  9996
2 32376  97.8886 315.6331 0001452  90.0034 270.1346 14.82155067996566
CARTOSAT-2A             
1 32783U 08021A   26131.51820465  .00000884  00000+0  12578-3 0  9993
2 32783  97.7662 181.4743 0010549 226.1847 133.8493 14.79189262973389
CUTE-1.7+APD II (CO-65) 
1 32785U 08021C   26131.51908946  .00002606  00000+0  16846-3 0  9992
2 32785  97.8260 112.1905 0009956 144.3006 215.8890 15.09098170979665
SEEDS II (CO-66)        
1 32791U 08021J   26130.97235940  .00011027  00000+0  36525-3 0  9998
2 32791  97.7530 127.1344 0005072  88.5832 271.5989 15.31474077981597
YUBILEINY (RS30)        
1 32953U 08025A   26131.48094322  .00000025  00000+0  10694-3 0  9991
2 32953  82.5070  18.2726 0020384  33.5544 326.6822 12.43178084815138
FENGYUN 3A              
1 32958U 08026A   26131.39575346  .00000034  00000+0  36607-4 0  9990
2 32958  98.6869  72.9211 0007764 229.6808 130.3691 14.19563248930183
HUANJING 1A (HJ-1A)     
1 33320U 08041A   26131.55202378  .00000369  00000+0  50530-4 0  9993
2 33320  97.6678 118.8131 0017336 258.7128 101.2139 14.83903882952977
HUANJING 1B (HJ-1B)     
1 33321U 08041B   26131.50483400  .00000176  00000+0  27728-4 0  9995
2 33321  97.6516 122.0490 0035180 305.6973  54.0969 14.83252004952970
SHIJIAN-6 03A (SJ-6 03A)
1 33408U 08053A   26131.50555031  .00006437  00000+0  33066-3 0  9991
2 33408  97.8439 163.5579 0012587 133.6284 226.5994 15.16797105957400
SHIJIAN-6 03B (SJ-6 03B)
1 33409U 08053B   26131.51395720  .00001184  00000+0  89562-4 0  9997
2 33409  97.8610 150.7984 0019843 159.6810 200.5209 15.04208256957238
CHUANGXIN 1-02 (CX-1-02)
1 33434U 08056B   26131.49710529  .00000097  00000+0  54516-4 0  9996
2 33434  98.6165 158.1259 0013068 246.6697 113.3111 14.30145609913370
STARS (KUKAI)           
1 33498U 09002G   26131.35526234  .00001641  00000+0  15388-3 0  9990
2 33498  98.1530  77.1738 0007051 298.4774  61.5735 14.95494634932978
