OBJECT_NAME,OBJECT_ID,EPOCH,MEAN_MOTION,ECCENTRICITY,INCLINATION,RA_OF_ASC_NODE,ARG_OF_PERICENTER,MEAN_ANOMALY,EPHEMERIS_TYPE,CLASSIFICATION_TYPE,NORAD_CAT_ID,ELEMENT_SET_NO,REV_AT_EPOCH,BSTAR,MEAN_MOTION_DOT,MEAN_MOTION_DDOT
COSMOS 2407,2004-028A,2026-05-11T08:59:16.551168,13.76331476,.0039221,82.9580,102.0982,357.5775,167.2292,0,U,28380,999,9481,.4687E-4,.61E-6,0
COSMOS 2414,2005-002A,2026-05-11T08:06:31.632768,13.87922642,.0041579,82.9496,71.5168,74.8985,285.6773,0,U,28521,999,7870,.4334E-4,.68E-6,0
INMARSAT 4-F1,2005-009A,2026-05-11T12:49:38.857728,1.00272454,.0002866,5.1189,42.6766,10.8167,186.3784,0,U,28628,999,7730,0,.45E-6,0
SJ-7,2005-024A,2026-05-11T12:26:15.007200,15.20976590,.0016818,97.7317,160.6479,154.5778,205.6287,0,U,28737,999,14245,.20535E-3,.4492E-4,0
CUBESAT XI-V,2005-043F,2026-05-11T08:53:33.440352,14.72532793,.0013241,98.2945,286.2304,326.6866,33.3506,0,U,28895,999,9633,.14206E-3,.85E-5,0
HINODE (SOLAR-B),2006-041A,2026-05-11T11:04:44.558976,14.68568868,.0018533,98.0565,148.1546,48.2408,312.0377,0,U,29479,999,4948,.83113E-4,.435E-5,0
SHIJIAN-6 02B (SJ-6 02B),2006-046B,2026-05-11T13:20:20.976576,15.01271142,.0011436,97.7158,160.8422,179.8288,180.2942,0,U,29506,999,6524,.12082E-3,.1494E-4,0
DMSP 5D-3 F17 (USA 191),2006-050A,2026-05-11T11:17:23.608032,14.14986627,.0010533,98.7388,138.7911,154.5824,205.5870,0,U,29522,999,723,.47867E-4,.49E-6,0
LAPAN-TUBSAT,2007-001A,2026-05-11T11:41:43.506240,14.85915176,.0011055,98.1348,129.8864,310.4228,49.6021,0,U,29709,999,4570,.12458E-3,.103E-4,0
HAIYANG-1B,2007-010A,2026-05-11T10:28:43.435776,14.31017687,.0012613,98.3483,114.7107,314.6022,45.4132,0,U,31113,999,99537,.36997E-4,.56E-6,0
COSMO-SKYMED 2,2007-059A,2026-05-11T12:04:04.905120,14.82155067,.0001452,97.8886,315.6331,90.0034,270.1346,0,U,32376,999,99656,.39071E-4,.259E-5,0
CARTOSAT-2A,2008-021A,2026-05-11T12:26:12.881760,14.79189262,.0010549,97.7662,181.4743,226.1847,133.8493,0,U,32783,999,97338,.12578E-3,.884E-5,0
CUTE-1.7+APD II (CO-65),2008-021C,2026-05-11T12:27:29.329344,15.09098170,.0009956,97.8260,112.1905,144.3006,215.8890,0,U,32785,999,97966,.16846E-3,.2606E-4,0
SEEDS II (CO-66),2008-021J,2026-05-10T23:20:11.852160,15.31474077,.0005072,97.7530,127.1344,88.5832,271.5989,0,U,32791,999,98159,.36525E-3,.11027E-3,0
YUBILEINY (RS30),2008-025A,2026-05-11T11:32:33.494208,12.43178084,.0020384,82.5070,18.2726,33.5544,326.6822,0,U,32953,999,81513,.10694E-3,.25E-6,0
FENGYUN 3A,2008-026A,2026-05-11T09:29:53.098944,14.19563248,.0007764,98.6869,72.9211,229.6808,130.3691,0,U,32958,999,93018,.36607E-4,.34E-6,0
HUANJING 1A (HJ-1A),2008-041A,2026-05-11T13:14:54.854592,14.83903882,.0017336,97.6678,118.8131,258.7128,101.2139,0,U,33320,999,95297,.5053E-4,.369E-5,0
HUANJING 1B (HJ-1B),2008-041B,2026-05-11T12:06:57.657600,14.83252004,.003518,97.6516,122.0490,305.6973,54.0969,0,U,33321,999,95297,.27728E-4,.176E-5,0
SHIJIAN-6 03A (SJ-6 03A),2008-053A,2026-05-11T12:07:59.546784,15.16797105,.0012587,97.8439,163.5579,133.6284,226.5994,0,U,33408,999,95740,.33066E-3,.6437E-4,0
SHIJIAN-6 03B (SJ-6 03B),2008-053B,2026-05-11T12:20:05.902080,15.04208256,.0019843,97.8610,150.7984,159.6810,200.5209,0,U,33409,999,95723,.89562E-4,.1184E-4,0
CHUANGXIN 1-02 (CX-1-02),2008-056B,2026-05-11T11:55:49.897056,14.30145609,.0013068,98.6165,158.1259,246.6697,113.3111,0,U,33434,999,91337,.54516E-4,.97E-6,0
STARS (KUKAI),2009-002G,2026-05-11T08:31:34.666176,14.95494634,.0007051,98.1530,77.1738,298.4774,61.5735,0,U,33498,999,93297,.15388E-3,.1641E-4,0
